{"fetched_at":"2026-07-14T06:34:23.487Z","source":"https://celestrak.org/NORAD/elements/gp.php?GROUP=planet&FORMAT=JSON","constellation":"pelican","records":[{"OBJECT_NAME":"PELICAN-1","OBJECT_ID":"2023-174AS","EPOCH":"2026-07-10T05:14:35.436480","CLASSIFICATION_TYPE":"U","MEAN_MOTION":15.72060428,"ECCENTRICITY":0.0002521,"INCLINATION":97.4009,"RA_OF_ASC_NODE":293.0009,"ARG_OF_PERICENTER":190.7359,"MEAN_ANOMALY":169.3851,"EPHEMERIS_TYPE":0,"NORAD_CAT_ID":58296,"ELEMENT_SET_NO":999,"REV_AT_EPOCH":14978,"BSTAR":0.000054184842,"MEAN_MOTION_DOT":0.00006951,"MEAN_MOTION_DDOT":0},{"OBJECT_NAME":"PELICAN-2","OBJECT_ID":"2025-009Y","EPOCH":"2026-07-13T19:19:00.939072","CLASSIFICATION_TYPE":"U","MEAN_MOTION":15.40626498,"ECCENTRICITY":0.0002528,"INCLINATION":97.1956,"RA_OF_ASC_NODE":285.4001,"ARG_OF_PERICENTER":147.0288,"MEAN_ANOMALY":213.1117,"EPHEMERIS_TYPE":0,"NORAD_CAT_ID":62631,"ELEMENT_SET_NO":999,"REV_AT_EPOCH":8365,"BSTAR":0.0000017003,"MEAN_MOTION_DOT":-1.1e-7,"MEAN_MOTION_DDOT":0},{"OBJECT_NAME":"PELICAN-3","OBJECT_ID":"2025-188A","EPOCH":"2026-07-13T17:42:00.641088","CLASSIFICATION_TYPE":"U","MEAN_MOTION":15.41312569,"ECCENTRICITY":0.0002042,"INCLINATION":97.1985,"RA_OF_ASC_NODE":270.4934,"ARG_OF_PERICENTER":113.9208,"MEAN_ANOMALY":246.2253,"EPHEMERIS_TYPE":0,"NORAD_CAT_ID":65315,"ELEMENT_SET_NO":999,"REV_AT_EPOCH":4940,"BSTAR":0.00011778,"MEAN_MOTION_DOT":0.00004823,"MEAN_MOTION_DDOT":0},{"OBJECT_NAME":"PELICAN-4","OBJECT_ID":"2025-188B","EPOCH":"2026-07-13T04:06:43.928064","CLASSIFICATION_TYPE":"U","MEAN_MOTION":15.40614656,"ECCENTRICITY":0.0001364,"INCLINATION":97.1994,"RA_OF_ASC_NODE":270.0881,"ARG_OF_PERICENTER":72.2617,"MEAN_ANOMALY":287.8779,"EPHEMERIS_TYPE":0,"NORAD_CAT_ID":65316,"ELEMENT_SET_NO":999,"REV_AT_EPOCH":4931,"BSTAR":0.00012508,"MEAN_MOTION_DOT":0.00005009,"MEAN_MOTION_DDOT":0},{"OBJECT_NAME":"PELICAN-5","OBJECT_ID":"2025-276B","EPOCH":"2026-07-13T17:42:38.022912","CLASSIFICATION_TYPE":"U","MEAN_MOTION":15.32295294,"ECCENTRICITY":0.000221,"INCLINATION":97.4135,"RA_OF_ASC_NODE":269.7055,"ARG_OF_PERICENTER":11.0642,"MEAN_ANOMALY":349.0648,"EPHEMERIS_TYPE":0,"NORAD_CAT_ID":66667,"ELEMENT_SET_NO":999,"REV_AT_EPOCH":3458,"BSTAR":0.000099743,"MEAN_MOTION_DOT":0.00003031,"MEAN_MOTION_DDOT":0},{"OBJECT_NAME":"PELICAN-6","OBJECT_ID":"2025-276AP","EPOCH":"2026-07-13T17:41:03.434784","CLASSIFICATION_TYPE":"U","MEAN_MOTION":15.31318716,"ECCENTRICITY":0.000185,"INCLINATION":97.3689,"RA_OF_ASC_NODE":269.732,"ARG_OF_PERICENTER":45.112,"MEAN_ANOMALY":315.0271,"EPHEMERIS_TYPE":0,"NORAD_CAT_ID":66703,"ELEMENT_SET_NO":999,"REV_AT_EPOCH":3459,"BSTAR":0.00054635,"MEAN_MOTION_DOT":0.00016468,"MEAN_MOTION_DDOT":0},{"OBJECT_NAME":"PELICAN-7","OBJECT_ID":"2026-100AP","EPOCH":"2026-07-13T16:24:38.856384","CLASSIFICATION_TYPE":"U","MEAN_MOTION":15.2360037,"ECCENTRICITY":0.0003758,"INCLINATION":97.3879,"RA_OF_ASC_NODE":92.1581,"ARG_OF_PERICENTER":101.6601,"MEAN_ANOMALY":258.5058,"EPHEMERIS_TYPE":0,"NORAD_CAT_ID":69017,"ELEMENT_SET_NO":999,"REV_AT_EPOCH":1084,"BSTAR":0.000045579,"MEAN_MOTION_DOT":0.00001021,"MEAN_MOTION_DDOT":0},{"OBJECT_NAME":"PELICAN-9","OBJECT_ID":"2026-100AR","EPOCH":"2026-07-13T15:49:48.432576","CLASSIFICATION_TYPE":"U","MEAN_MOTION":15.22286518,"ECCENTRICITY":0.0003053,"INCLINATION":97.3639,"RA_OF_ASC_NODE":91.9566,"ARG_OF_PERICENTER":338.0578,"MEAN_ANOMALY":22.0527,"EPHEMERIS_TYPE":0,"NORAD_CAT_ID":69019,"ELEMENT_SET_NO":999,"REV_AT_EPOCH":1083,"BSTAR":0.000054706,"MEAN_MOTION_DOT":0.00001191,"MEAN_MOTION_DDOT":0}]}
