PELICAN-1               
1 58296U 23174AS  26191.21846570  .00006951  00000+0  54185-4 0  9996
2 58296  97.4009 293.0009 0002521 190.7359 169.3851 15.72060428149785
PELICAN-2               
1 62631U 25009Y   26194.80487198 -.00000011  00000+0  17003-5 0  9999
2 62631  97.1956 285.4001 0002528 147.0288 213.1117 15.40626498 83657
PELICAN-3               
1 65315U 25188A   26194.73750742  .00004823  00000+0  11778-3 0  9994
2 65315  97.1985 270.4934 0002042 113.9208 246.2253 15.41312569 49400
PELICAN-4               
1 65316U 25188B   26194.17134176  .00005009  00000+0  12508-3 0  9999
2 65316  97.1994 270.0881 0001364  72.2617 287.8779 15.40614656 49310
PELICAN-5               
1 66667U 25276B   26194.73794008  .00003031  00000+0  99743-4 0  9995
2 66667  97.4135 269.7055 0002210  11.0642 349.0648 15.32295294 34581
PELICAN-6               
1 66703U 25276AP  26194.73684531  .00016468  00000+0  54635-3 0  9993
2 66703  97.3689 269.7320 0001850  45.1120 315.0271 15.31318716 34598
PELICAN-7               
1 69017U 26100AP  26194.68378306  .00001021  00000+0  45579-4 0  9992
2 69017  97.3879  92.1581 0003758 101.6601 258.5058 15.23600370 10845
PELICAN-9               
1 69019U 26100AR  26194.65958834  .00001191  00000+0  54706-4 0  9991
2 69019  97.3639  91.9566 0003053 338.0578  22.0527 15.22286518 10835
